{"type": "FeatureCollection", "features": [ {"type": "Feature", "properties": {"norad_id": 40799, "name": "COSMOS 2251 DEB", "group": "cosmos-2251-debris", "lat": -1.2910992431798214, "lon": -97.96672358636195, "alt_km": 643.5859159977945, "timestamp": "2025-12-20T22:39:11.022941+00:00", "meta": {"OBJECT_NAME": "COSMOS 2251 DEB", "OBJECT_ID": "1993-036BWC", "EPOCH": "2025-12-19T23:22:48.331200", "MEAN_MOTION": 14.96721244, "ECCENTRICITY": 0.0119254, "INCLINATION": 73.9272, "RA_OF_ASC_NODE": 83.6344, "ARG_OF_PERICENTER": 324.0536, "MEAN_ANOMALY": 35.2666, "EPHEMERIS_TYPE": 0, "CLASSIFICATION_TYPE": "U", "NORAD_CAT_ID": 40799, "ELEMENT_SET_NO": 999, "REV_AT_EPOCH": 50085, "BSTAR": 0.00020522528, "MEAN_MOTION_DOT": 2.662e-05, "MEAN_MOTION_DDOT": 0}, "tle": {"line1": "1 40799U 93036BWC 25353.97417050  .00002662  00000+0  20523-3 0  9991", "line2": "2 40799  73.9272  83.6344 0119254 324.0536  35.2666 14.96721244500850"}}, "geometry": {"type": "Point", "coordinates": [-97.96672358636195, -1.2910992431798214]}}, {"type": "Feature", "properties": {"norad_id": 40802, "name": "COSMOS 2251 DEB", "group": "cosmos-2251-debris", "lat": 25.871214445285144, "lon": 144.89571013068166, "alt_km": 674.8181195870993, "timestamp": "2025-12-20T22:39:11.022950+00:00", "meta": {"OBJECT_NAME": "COSMOS 2251 DEB", "OBJECT_ID": "1993-036BWF", "EPOCH": "2025-12-17T16:32:13.649568", "MEAN_MOTION": 14.77662029, "ECCENTRICITY": 0.00629965, "INCLINATION": 74.0395, "RA_OF_ASC_NODE": 143.3018, "ARG_OF_PERICENTER": 241.0781, "MEAN_ANOMALY": 118.4067, "EPHEMERIS_TYPE": 0, "CLASSIFICATION_TYPE": "U", "NORAD_CAT_ID": 40802, "ELEMENT_SET_NO": 999, "REV_AT_EPOCH": 64482, "BSTAR": 0.00061564393, "MEAN_MOTION_DOT": 4.522e-05, "MEAN_MOTION_DDOT": 0}, "tle": {"line1": "1 40802U 93036BWF 25351.68904687  .00004522  00000+0  61564-3 0  9996", "line2": "2 40802  74.0395 143.3018 0062996 241.0781 118.4067 14.77662029644824"}}, "geometry": {"type": "Point", "coordinates": [144.89571013068166, 25.871214445285144]}}, {"type": "Feature", "properties": {"norad_id": 40803, "name": "COSMOS 2251 DEB", "group": "cosmos-2251-debris", "lat": -6.25188842471377, "lon": -141.76935077280126, "alt_km": 712.8134410006669, "timestamp": "2025-12-20T22:39:11.022959+00:00", "meta": {"OBJECT_NAME": "COSMOS 2251 DEB", "OBJECT_ID": "1993-036BWG", "EPOCH": "2025-12-18T13:33:58.856256", "MEAN_MOTION": 14.51832386, "ECCENTRICITY": 0.00340447, "INCLINATION": 74.0153, "RA_OF_ASC_NODE": 40.9148, "ARG_OF_PERICENTER": 256.5349, "MEAN_ANOMALY": 103.2017, "EPHEMERIS_TYPE": 0, "CLASSIFICATION_TYPE": "U", "NORAD_CAT_ID": 40803, "ELEMENT_SET_NO": 999, "REV_AT_EPOCH": 58837, "BSTAR": 0.00023751295, "MEAN_MOTION_DOT": 9.34e-06, "MEAN_MOTION_DDOT": 0}, "tle": {"line1": "1 40803U 93036BWG 25352.56526454  .00000934  00000+0  23751-3 0  9996", "line2": "2 40803  74.0153  40.9148 0034044 256.5349 103.2017 14.51832386588378"}}, "geometry": {"type": "Point", "coordinates": [-141.76935077280126, -6.25188842471377]}}, {"type": "Feature", "properties": {"norad_id": 40808, "name": "COSMOS 2251 DEB", "group": "cosmos-2251-debris", "lat": -24.760436690786886, "lon": -42.78161303395888, "alt_km": 669.2572381127384, "timestamp": "2025-12-20T22:39:11.022968+00:00", "meta": {"OBJECT_NAME": "COSMOS 2251 DEB", "OBJECT_ID": "1993-036BWM", "EPOCH": "2025-12-18T11:05:09.828384", "MEAN_MOTION": 14.67577712, "ECCENTRICITY": 0.00086916, "INCLINATION": 74.0411, "RA_OF_ASC_NODE": 134.4242, "ARG_OF_PERICENTER": 170.7227, "MEAN_ANOMALY": 247.3074, "EPHEMERIS_TYPE": 0, "CLASSIFICATION_TYPE": "U", "NORAD_CAT_ID": 40808, "ELEMENT_SET_NO": 999, "REV_AT_EPOCH": 63703, "BSTAR": 0.0013644705, "MEAN_MOTION_DOT": 7.729e-05, "MEAN_MOTION_DDOT": 0}, "tle": {"line1": "1 40808U 93036BWM 25352.46191931  .00007729  00000+0  13645-2 0  9997", "line2": "2 40808  74.0411 134.4242 0008691 170.7227 247.3074 14.67577712637032"}}, "geometry": {"type": "Point", "coordinates": [-42.78161303395888, -24.760436690786886]}}, {"type": "Feature", "properties": {"norad_id": 40810, "name": "COSMOS 2251 DEB", "group": "cosmos-2251-debris", "lat": -41.27643819268529, "lon": -106.33369389596609, "alt_km": 690.828220935543, "timestamp": "2025-12-20T22:39:11.022977+00:00", "meta": {"OBJECT_NAME": "COSMOS 2251 DEB", "OBJECT_ID": "1993-036BWP", "EPOCH": "2025-12-19T04:29:06.134784", "MEAN_MOTION": 14.58759616, "ECCENTRICITY": 0.00182272, "INCLINATION": 74.037, "RA_OF_ASC_NODE": 62.4589, "ARG_OF_PERICENTER": 213.6462, "MEAN_ANOMALY": 146.3547, "EPHEMERIS_TYPE": 0, "CLASSIFICATION_TYPE": "U", "NORAD_CAT_ID": 40810, "ELEMENT_SET_NO": 999, "REV_AT_EPOCH": 61777, "BSTAR": 0.00051940832, "MEAN_MOTION_DOT": 2.403e-05, "MEAN_MOTION_DDOT": 0}, "tle": {"line1": "1 40810U 93036BWP 25353.18687656  .00002403  00000+0  51941-3 0  9990", "line2": "2 40810  74.0370  62.4589 0018227 213.6462 146.3547 14.58759616617774"}}, "geometry": {"type": "Point", "coordinates": [-106.33369389596609, -41.27643819268529]}}, {"type": "Feature", "properties": {"norad_id": 46271, "name": "COSMOS 2251 DEB", "group": "cosmos-2251-debris", "lat": -62.59728187711179, "lon": -83.72965239453245, "alt_km": 715.5803264962569, "timestamp": "2025-12-20T22:39:11.022986+00:00", "meta": {"OBJECT_NAME": "COSMOS 2251 DEB", "OBJECT_ID": "1993-036BWT", "EPOCH": "2025-12-19T22:21:35.328960", "MEAN_MOTION": 14.51444335, "ECCENTRICITY": 0.003987, "INCLINATION": 74.0479, "RA_OF_ASC_NODE": 64.6869, "ARG_OF_PERICENTER": 184.8218, "MEAN_ANOMALY": 175.2565, "EPHEMERIS_TYPE": 0, "CLASSIFICATION_TYPE": "U", "NORAD_CAT_ID": 46271, "ELEMENT_SET_NO": 999, "REV_AT_EPOCH": 84746, "BSTAR": 0.00020357, "MEAN_MOTION_DOT": 7.93e-06, "MEAN_MOTION_DDOT": 0}, "tle": {"line1": "1 46271U 93036BWT 25353.93165890  .00000793  00000+0  20357-3 0  9998", "line2": "2 46271  74.0479  64.6869 0039870 184.8218 175.2565 14.51444335847465"}}, "geometry": {"type": "Point", "coordinates": [-83.72965239453245, -62.59728187711179]}}, {"type": "Feature", "properties": {"norad_id": 46430, "name": "COSMOS 2251 DEB", "group": "cosmos-2251-debris", "lat": -47.009699233621795, "lon": -37.242984739129874, "alt_km": 680.8221599460785, "timestamp": "2025-12-20T22:39:11.022995+00:00", "meta": {"OBJECT_NAME": "COSMOS 2251 DEB", "OBJECT_ID": "1993-036BWU", "EPOCH": "2025-12-19T07:10:40.968192", "MEAN_MOTION": 14.51392906, "ECCENTRICITY": 0.0103211, "INCLINATION": 73.9139, "RA_OF_ASC_NODE": 343.9071, "ARG_OF_PERICENTER": 263.0684, "MEAN_ANOMALY": 95.8727, "EPHEMERIS_TYPE": 0, "CLASSIFICATION_TYPE": "U", "NORAD_CAT_ID": 46430, "ELEMENT_SET_NO": 999, "REV_AT_EPOCH": 79778, "BSTAR": 0.0013871, "MEAN_MOTION_DOT": 5.902e-05, "MEAN_MOTION_DDOT": 0}, "tle": {"line1": "1 46430U 93036BWU 25353.29908528  .00005902  00000+0  13871-2 0  9996", "line2": "2 46430  73.9139 343.9071 0103211 263.0684  95.8727 14.51392906797781"}}, "geometry": {"type": "Point", "coordinates": [-37.242984739129874, -47.009699233621795]}}, {"type": "Feature", "properties": {"norad_id": 46432, "name": "COSMOS 2251 DEB", "group": "cosmos-2251-debris", "lat": -58.835008540820205, "lon": 69.78874581532362, "alt_km": 1065.8367733545965, "timestamp": "2025-12-20T22:39:11.023004+00:00", "meta": {"OBJECT_NAME": "COSMOS 2251 DEB", "OBJECT_ID": "1993-036BWW", "EPOCH": "2025-12-16T14:54:01.415808", "MEAN_MOTION": 13.36645779, "ECCENTRICITY": 0.04740577, "INCLINATION": 73.8726, "RA_OF_ASC_NODE": 105.1782, "ARG_OF_PERICENTER": 222.0894, "MEAN_ANOMALY": 155.0222, "EPHEMERIS_TYPE": 0, "CLASSIFICATION_TYPE": "U", "NORAD_CAT_ID": 46432, "ELEMENT_SET_NO": 999, "REV_AT_EPOCH": 67018, "BSTAR": 0.0010887976, "MEAN_MOTION_DOT": 1.051e-05, "MEAN_MOTION_DDOT": 0}, "tle": {"line1": "1 46432U 93036BWW 25350.62084972  .00001051  00000+0  10888-2 0  9996", "line2": "2 46432  73.8726 105.1782 0474057 222.0894 155.0222 13.36645779670182"}}, "geometry": {"type": "Point", "coordinates": [69.78874581532362, -58.835008540820205]}}, {"type": "Feature", "properties": {"norad_id": 47045, "name": "COSMOS 2251 DEB", "group": "cosmos-2251-debris", "lat": 62.41102301489044, "lon": -79.10554345303792, "alt_km": 775.9319309735793, "timestamp": "2025-12-20T22:39:11.023013+00:00", "meta": {"OBJECT_NAME": "COSMOS 2251 DEB", "OBJECT_ID": "1993-036BWZ", "EPOCH": "2025-12-08T18:12:30.966336", "MEAN_MOTION": 14.3889696, "ECCENTRICITY": 0.00302024, "INCLINATION": 74.0568, "RA_OF_ASC_NODE": 156.4972, "ARG_OF_PERICENTER": 298.2595, "MEAN_ANOMALY": 80.2379, "EPHEMERIS_TYPE": 0, "CLASSIFICATION_TYPE": "U", "NORAD_CAT_ID": 47045, "ELEMENT_SET_NO": 999, "REV_AT_EPOCH": 7748, "BSTAR": 0.00016053941, "MEAN_MOTION_DOT": 4.71e-06, "MEAN_MOTION_DDOT": 0}, "tle": {"line1": "1 47045U 93036BWZ 25342.75869174  .00000471  00000+0  16054-3 0  9994", "line2": "2 47045  74.0568 156.4972 0030202 298.2595  80.2379 14.38896960 77482"}}, "geometry": {"type": "Point", "coordinates": [-79.10554345303792, 62.41102301489044]}}, {"type": "Feature", "properties": {"norad_id": 47048, "name": "COSMOS 2251 DEB", "group": "cosmos-2251-debris", "lat": 67.64513433688775, "lon": -12.015397945919107, "alt_km": 656.4937983445379, "timestamp": "2025-12-20T22:39:11.023022+00:00", "meta": {"OBJECT_NAME": "COSMOS 2251 DEB", "OBJECT_ID": "1993-036BXC", "EPOCH": "2025-12-19T13:47:33.177120", "MEAN_MOTION": 14.52356803, "ECCENTRICITY": 0.0132576, "INCLINATION": 73.9784, "RA_OF_ASC_NODE": 306.2511, "ARG_OF_PERICENTER": 132.3729, "MEAN_ANOMALY": 347.2197, "EPHEMERIS_TYPE": 0, "CLASSIFICATION_TYPE": "U", "NORAD_CAT_ID": 47048, "ELEMENT_SET_NO": 999, "REV_AT_EPOCH": 59789, "BSTAR": 0.00066595, "MEAN_MOTION_DOT": 3.012e-05, "MEAN_MOTION_DDOT": 0}, "tle": {"line1": "1 47048U 93036BXC 25353.57468955  .00003012  00000+0  66595-3 0  9990", "line2": "2 47048  73.9784 306.2511 0132576 132.3729 347.2197 14.52356803597890"}}, "geometry": {"type": "Point", "coordinates": [-12.015397945919107, 67.64513433688775]}}]}